0 COSMOS 846
1 09061U 76078A   13283.10201089  .00000066  00000-0  52014-4 0  5121
2 09061 082.9290 266.6079 0041979 168.3546 262.0327 13.76288450138140
0 COSMOS 846
1 09061U 76078A   13284.11527963  .00000060  00000-0  45598-4 0  5139
2 09061 082.9291 265.8541 0042042 165.5598 242.3749 13.76288681138284
0 COSMOS 846
1 09061U 76078A   13286.46315112  .00000030  00000-0  14718-4 0  5159
2 09061 082.9294 264.1074 0042191 159.1183 355.1094 13.76289039138604
0 COSMOS 846
1 09061U 76078A   13287.47998722  .00000033  00000-0  18225-4 0  5166
2 09061 082.9296 263.3508 0042251 156.3421 353.1005 13.76289168138748
0 COSMOS 846
1 09061U 76078A   13288.49131375  .00000042  00000-0  27411-4 0  5170
2 09061 082.9299 262.5984 0042314 153.6000 323.7756 13.76289240138885
0 COSMOS 846
1 09061U 76078A   13289.86148472  .00000049  00000-0  34170-4 0  5186
2 09061 082.9302 261.5791 0042390 149.8360 272.4156 13.76289185139079
0 COSMOS 846
1 09061U 76078A   13291.09451898  .00000063  00000-0  47972-4 0  5194
2 09061 082.9304 260.6619 0042447 146.4703 261.5781 13.76289239139249
0 COSMOS 846
1 09061U 76078A   13292.49432909  .00000071  00000-0  56787-4 0  5206
2 09061 082.9307 259.6207 0042510 142.6554 357.0374 13.76289207139431
0 COSMOS 846
1 09061U 76078A   13293.85094412  .00000091  00000-0  76706-4 0  5216
2 09061 082.9308 258.6119 0042560 138.9590 238.4831 13.76289315139627
0 COSMOS 846
1 09061U 76078A   13295.02411927  .00000093  00000-0  79247-4 0  5227
2 09061 082.9309 257.7394 0042598 135.7708 291.0550 13.76289538139787
0 COSMOS 846
1 09061U 76078A   13296.04284255  .00000094  00000-0  79965-4 0  5231
2 09061 082.9309 256.9818 0042629 133.0260 298.3617 13.76289759139923
